{"type":"FeatureCollection","features":[{"type":"Feature","properties":{"stroke":"rgba(0, 255, 56, 1)","stroke-opacity":1,"stroke-width":4},"geometry":{"type":"LineString","coordinates":[[-0.468985,51.480629],[-0.470256,51.480711],[-0.470314,51.480749],[-0.470272,51.48116],[-0.470118,51.481189],[-0.46837,51.481114],[-0.468332,51.481419],[-0.46946,51.481436],[-0.471668,51.481581],[-0.472359,51.481594],[-0.474879,51.481564],[-0.47548,51.481613],[-0.47579,51.481599],[-0.476073,51.481598],[-0.476706,51.481618],[-0.478015,51.481679],[-0.479193,51.4817],[-0.479395,51.481746],[-0.479591,51.481676],[-0.479893,51.481654],[-0.48042,51.481606],[-0.48109,51.481532],[-0.481914,51.481444],[-0.482488,51.481393],[-0.482763,51.481385],[-0.483281,51.481405],[-0.483546,51.48142],[-0.483987,51.481434],[-0.484629,51.48146],[-0.485022,51.481492],[-0.485379,51.481517],[-0.485701,51.481541],[-0.486181,51.481554],[-0.486744,51.481562],[-0.487393,51.481619],[-0.487638,51.481628],[-0.487879,51.481632],[-0.488006,51.481629],[-0.488251,51.481609],[-0.488417,51.481577],[-0.488766,51.481493],[-0.489083,51.481403],[-0.489487,51.481247],[-0.489723,51.481134],[-0.489807,51.481068],[-0.489952,51.480944],[-0.490038,51.480853],[-0.490119,51.480788],[-0.490235,51.480707],[-0.490349,51.480624],[-0.490484,51.480527],[-0.490601,51.480446],[-0.490718,51.48036],[-0.490848,51.480272],[-0.49129,51.47997],[-0.491513,51.479831],[-0.491781,51.479668],[-0.491946,51.479549],[-0.492203,51.479402],[-0.492409,51.479292],[-0.492534,51.479229],[-0.492756,51.479184],[-0.492818,51.479183],[-0.493064,51.479127],[-0.493292,51.479075],[-0.493565,51.479035],[-0.49374,51.479013],[-0.493936,51.478986],[-0.494076,51.47892],[-0.494204,51.478868],[-0.494264,51.47883],[-0.494336,51.478764],[-0.494453,51.478666],[-0.494941,51.478734],[-0.494928,51.478694],[-0.495014,51.478373],[-0.49509,51.478162],[-0.495194,51.477944],[-0.495604,51.477086],[-0.49577,51.47676],[-0.495883,51.476511],[-0.495977,51.476272],[-0.496059,51.476011],[-0.496101,51.475749],[-0.496127,51.475595],[-0.496134,51.475455],[-0.496128,51.475163],[-0.496092,51.474958],[-0.496039,51.474755],[-0.49592,51.474332],[-0.495815,51.474139],[-0.495689,51.473923],[-0.495373,51.473486],[-0.495164,51.473271],[-0.49492,51.473035],[-0.494633,51.472791],[-0.49433,51.47255],[-0.493745,51.472099],[-0.493459,51.471874],[-0.493181,51.471643],[-0.492973,51.471458],[-0.492796,51.471293],[-0.492629,51.471092],[-0.492472,51.470899],[-0.492257,51.470542],[-0.492173,51.47038],[-0.492084,51.470187],[-0.492025,51.470025],[-0.491962,51.469813],[-0.491913,51.469471],[-0.491909,51.469219],[-0.491926,51.468971],[-0.491967,51.468615],[-0.492022,51.468261],[-0.49213,51.46797],[-0.492172,51.467856],[-0.492216,51.467769],[-0.492285,51.467726],[-0.492371,51.467707],[-0.492338,51.46764],[-0.492277,51.467622],[-0.492221,51.46759],[-0.492203,51.467467],[-0.492188,51.467272],[-0.492182,51.467173],[-0.492189,51.467075],[-0.49223,51.466789],[-0.492259,51.466641],[-0.492303,51.4665],[-0.492396,51.466176],[-0.492517,51.465861],[-0.492572,51.46571],[-0.492641,51.465558],[-0.492769,51.465262],[-0.492927,51.464917],[-0.493098,51.464573],[-0.493162,51.464446],[-0.49324,51.464323],[-0.493335,51.464208],[-0.493382,51.464155],[-0.493423,51.464115],[-0.4935,51.464057],[-0.493568,51.464025],[-0.493734,51.463974],[-0.493872,51.463941],[-0.493983,51.463928],[-0.494008,51.463862],[-0.494035,51.463815],[-0.49407,51.463778],[-0.494139,51.463739],[-0.494228,51.463693],[-0.494325,51.463632],[-0.494258,51.463561],[-0.494188,51.463454],[-0.494096,51.463358],[-0.494053,51.46332],[-0.494028,51.463284],[-0.493916,51.463141],[-0.493796,51.462957],[-0.493787,51.462869],[-0.493799,51.462769],[-0.493809,51.462661],[-0.493862,51.462503],[-0.493931,51.462128],[-0.493986,51.461723],[-0.493996,51.461598],[-0.494001,51.461472],[-0.494026,51.461217],[-0.494016,51.460773],[-0.493987,51.460302],[-0.493972,51.460056],[-0.49394,51.459778],[-0.493949,51.459721],[-0.493995,51.459698],[-0.49404,51.459682],[-0.494032,51.45952],[-0.493909,51.459394],[-0.493869,51.458856],[-0.49386,51.458393],[-0.493856,51.458155],[-0.493868,51.457921],[-0.49392,51.457539],[-0.493787,51.457535],[-0.493778,51.457598],[-0.493603,51.457585],[-0.493578,51.457549],[-0.493481,51.457494],[-0.492958,51.457442],[-0.492704,51.457403],[-0.492448,51.457352],[-0.49191,51.457247],[-0.491423,51.457159],[-0.490963,51.457079],[-0.490493,51.457011],[-0.489606,51.456918],[-0.489421,51.456911],[-0.489203,51.456939],[-0.489112,51.456978],[-0.489034,51.457037],[-0.488849,51.457365],[-0.48876,51.457512],[-0.488695,51.457583],[-0.48862,51.457636],[-0.48847,51.457681],[-0.488364,51.457698],[-0.488139,51.45771],[-0.487936,51.457695],[-0.487133,51.457603],[-0.486719,51.45756],[-0.486307,51.45753],[-0.485989,51.457524],[-0.48524,51.457512],[-0.485143,51.457538],[-0.485031,51.457531],[-0.484984,51.457509],[-0.484807,51.457504],[-0.484544,51.4575],[-0.484102,51.457488],[-0.483666,51.45747],[-0.48312,51.457475],[-0.482792,51.457489],[-0.482456,51.457509],[-0.481964,51.457515],[-0.481853,51.457504],[-0.481792,51.457485],[-0.481635,51.457476],[-0.481289,51.457448],[-0.480635,51.457414],[-0.480457,51.457403],[-0.480235,51.457381],[-0.480054,51.457344],[-0.479902,51.457323],[-0.479838,51.45732],[-0.479775,51.457323],[-0.479614,51.457287],[-0.479636,51.45725],[-0.479588,51.457235],[-0.479523,51.457226],[-0.479341,51.457213],[-0.479243,51.457226],[-0.479131,51.457246],[-0.478973,51.457278],[-0.478507,51.457417],[-0.477976,51.457604],[-0.477067,51.457855],[-0.476681,51.457977],[-0.476464,51.458073],[-0.47634,51.458158],[-0.476237,51.458251],[-0.476077,51.45838],[-0.47592,51.458521],[-0.475778,51.458678],[-0.475747,51.458721],[-0.475744,51.458763],[-0.475604,51.458737],[-0.475517,51.458738],[-0.475513,51.458682],[-0.475496,51.458635],[-0.475364,51.458658],[-0.47525,51.458668],[-0.475133,51.458673],[-0.474997,51.45867],[-0.47488,51.45866],[-0.474804,51.458646],[-0.474731,51.458642],[-0.474583,51.458636],[-0.47443,51.458628],[-0.474342,51.458619],[-0.474137,51.458578],[-0.473952,51.458557],[-0.473803,51.458527],[-0.473622,51.458489],[-0.473448,51.458454],[-0.473296,51.458425],[-0.473144,51.458403],[-0.472877,51.458364],[-0.472578,51.45831],[-0.472012,51.458203],[-0.471813,51.458159],[-0.471769,51.458123],[-0.47162,51.458098],[-0.47154,51.458095],[-0.471468,51.458082],[-0.471297,51.458041],[-0.471253,51.458059],[-0.471078,51.458044],[-0.47099,51.458034],[-0.470897,51.458024],[-0.47087,51.458105],[-0.470851,51.458186],[-0.470825,51.458267],[-0.470774,51.458475],[-0.468548,51.458258],[-0.468386,51.458226],[-0.468292,51.458224],[-0.468194,51.458225],[-0.467008,51.458104],[-0.466412,51.458044],[-0.464138,51.457815],[-0.46252,51.457667],[-0.461901,51.457608],[-0.461711,51.457589],[-0.461384,51.457528],[-0.460905,51.457509],[-0.460896,51.457563],[-0.46089,51.457602],[-0.460822,51.457598],[-0.460792,51.457742],[-0.460783,51.457869],[-0.460642,51.457873],[-0.460621,51.45821],[-0.460604,51.458428],[-0.460589,51.458709],[-0.460572,51.458829],[-0.460569,51.45889],[-0.460573,51.458952],[-0.460458,51.458955],[-0.46031,51.458936],[-0.460347,51.458799],[-0.46037,51.458716],[-0.460367,51.458631],[-0.460331,51.458562],[-0.460299,51.458441],[-0.460321,51.458344],[-0.46028,51.45823],[-0.460314,51.457968],[-0.460325,51.457793],[-0.460308,51.457738],[-0.460275,51.457692],[-0.460217,51.457657],[-0.460093,51.457623],[-0.459524,51.457571],[-0.459024,51.457508],[-0.458345,51.457415],[-0.457923,51.45735],[-0.45746,51.457261],[-0.457189,51.457201],[-0.456341,51.457018],[-0.455889,51.456919],[-0.455657,51.456885],[-0.455436,51.456866],[-0.455246,51.456868],[-0.455057,51.456877],[-0.454864,51.456902],[-0.454679,51.456937]]}},{"type":"Feature","properties":{"":0,"stroke-width":4,"stroke":"rgba(255, 0, 0, 1)"},"geometry":{"type":"LineString","coordinates":[[-0.442896,51.459343],[-0.442139,51.459355],[-0.441723,51.45962],[-0.441497,51.459765],[-0.441196,51.459936],[-0.440888,51.460059],[-0.440196,51.460164],[-0.439328,51.460212],[-0.439304,51.460131],[-0.439304,51.460009],[-0.439104,51.459984],[-0.438323,51.460135],[-0.43826,51.46009],[-0.437847,51.46027],[-0.437349,51.46048],[-0.436494,51.460818],[-0.435311,51.461315],[-0.434491,51.461659],[-0.433355,51.462147],[-0.432811,51.462376],[-0.43221,51.462631],[-0.43159,51.46289],[-0.430955,51.463161],[-0.42968,51.463702],[-0.428541,51.464183],[-0.427812,51.464488],[-0.426548,51.465028],[-0.425579,51.465434],[-0.424625,51.465836],[-0.424097,51.466058],[-0.423376,51.466366],[-0.422719,51.466642],[-0.422611,51.466699],[-0.422549,51.466763],[-0.422455,51.466739],[-0.422246,51.466804],[-0.422137,51.466834],[-0.422104,51.466876],[-0.422075,51.466934],[-0.42214,51.466951],[-0.422246,51.467009],[-0.422301,51.467064],[-0.42251,51.467465],[-0.422536,51.46754],[-0.422652,51.467666],[-0.422704,51.467841],[-0.422712,51.468042],[-0.422695,51.468078],[-0.422512,51.468205],[-0.422308,51.468293],[-0.422389,51.468371],[-0.422252,51.468422],[-0.422313,51.468509],[-0.422155,51.468566],[-0.422015,51.468623],[-0.421808,51.468681],[-0.421577,51.468729],[-0.421525,51.468744],[-0.421289,51.468916],[-0.421243,51.469024],[-0.421272,51.469134],[-0.421144,51.469172],[-0.421033,51.469233],[-0.4208,51.469171],[-0.420379,51.469145],[-0.420191,51.469174],[-0.419465,51.469389],[-0.419027,51.469542],[-0.418477,51.46983],[-0.417535,51.470327],[-0.416279,51.470983],[-0.415261,51.471514],[-0.415007,51.471644],[-0.414983,51.471718],[-0.415004,51.471795],[-0.415091,51.471879],[-0.415136,51.472037],[-0.415192,51.472158],[-0.415735,51.472633],[-0.416316,51.473063],[-0.416871,51.473475],[-0.417411,51.473909],[-0.417649,51.474213],[-0.417784,51.474536],[-0.418013,51.475127],[-0.418184,51.475358],[-0.418326,51.475496],[-0.418578,51.475645],[-0.418717,51.47572],[-0.418888,51.475792],[-0.419088,51.475844],[-0.419309,51.475895],[-0.420317,51.47605],[-0.421024,51.476137],[-0.421766,51.476159],[-0.422491,51.476173],[-0.422572,51.476141],[-0.422596,51.476091],[-0.422726,51.476089],[-0.422773,51.476131],[-0.422835,51.476151],[-0.423898,51.476159],[-0.424747,51.476117],[-0.425795,51.476111],[-0.426018,51.476134],[-0.426148,51.476147],[-0.426221,51.476142],[-0.426236,51.476226],[-0.426218,51.476306],[-0.426145,51.476372],[-0.426233,51.476408],[-0.426316,51.476502],[-0.426361,51.476622],[-0.426305,51.478021],[-0.426253,51.478071],[-0.4263,51.478131],[-0.426303,51.478181],[-0.426302,51.478237],[-0.426294,51.478293],[-0.426282,51.478345],[-0.426309,51.47838],[-0.426323,51.478497],[-0.426327,51.47862],[-0.426334,51.478706],[-0.426344,51.478787],[-0.426466,51.478962],[-0.426553,51.479087],[-0.426679,51.479221],[-0.426796,51.479301],[-0.426851,51.479342],[-0.426913,51.479373],[-0.427001,51.479415],[-0.427118,51.479457],[-0.427339,51.479507],[-0.427483,51.479533],[-0.427634,51.479552],[-0.427768,51.479561],[-0.4279,51.479566],[-0.428141,51.479562],[-0.428268,51.479557],[-0.428322,51.47956],[-0.428369,51.479569],[-0.428407,51.479576],[-0.428443,51.479602],[-0.428568,51.479606],[-0.428716,51.479606],[-0.428767,51.479561],[-0.428859,51.479537],[-0.429169,51.47952],[-0.429489,51.479499],[-0.42981,51.479487],[-0.430046,51.479483],[-0.430346,51.479478],[-0.430657,51.479476],[-0.431268,51.479482],[-0.431428,51.479485],[-0.43159,51.479498],[-0.431815,51.479521],[-0.431905,51.479525],[-0.432078,51.479515],[-0.432199,51.479504],[-0.432505,51.479502],[-0.432576,51.479501],[-0.43265,51.479502],[-0.432724,51.479511],[-0.432796,51.479526],[-0.432862,51.479554],[-0.432926,51.479598],[-0.432983,51.479655],[-0.433091,51.479774],[-0.433201,51.479894],[-0.433251,51.479956],[-0.433305,51.480005],[-0.433369,51.480063],[-0.433451,51.480127],[-0.433573,51.480238],[-0.433653,51.480312],[-0.433709,51.480386],[-0.433742,51.480444],[-0.433732,51.480483],[-0.433814,51.480505],[-0.434034,51.480548],[-0.434157,51.480551],[-0.434366,51.480557],[-0.43447,51.480573],[-0.43493,51.480581],[-0.435388,51.480595],[-0.435849,51.480608],[-0.436309,51.480626],[-0.43721,51.480664],[-0.43813,51.480696],[-0.440181,51.480765],[-0.440982,51.48081],[-0.441822,51.480848],[-0.442354,51.480872],[-0.442954,51.480889],[-0.444109,51.480926],[-0.44629,51.481018],[-0.447221,51.481048],[-0.447889,51.481066],[-0.448016,51.481071],[-0.448119,51.481091],[-0.449556,51.48115],[-0.449654,51.481144],[-0.449735,51.481149],[-0.449981,51.481151],[-0.450068,51.481174],[-0.450143,51.481178],[-0.450619,51.481183],[-0.451994,51.481202],[-0.452643,51.481197],[-0.453315,51.481195],[-0.453983,51.48119],[-0.454649,51.481179],[-0.455298,51.481169],[-0.45595,51.481171],[-0.457041,51.48109],[-0.457533,51.481054],[-0.458022,51.481015],[-0.458092,51.481005],[-0.458168,51.480993],[-0.458157,51.480852],[-0.458119,51.480718],[-0.45833,51.480691],[-0.45837,51.480746],[-0.458395,51.480829],[-0.458423,51.480969],[-0.458702,51.480959],[-0.458967,51.480944],[-0.459367,51.480908],[-0.459873,51.480864],[-0.460339,51.480835],[-0.461072,51.480838],[-0.461788,51.480864],[-0.462711,51.480929],[-0.463212,51.480962],[-0.463627,51.481011],[-0.465287,51.481206],[-0.46619,51.481305],[-0.466668,51.481356],[-0.467036,51.48138],[-0.467184,51.481391],[-0.46733,51.481392],[-0.467681,51.481405],[-0.468312,51.481417],[-0.468349,51.481112]]}},{"type":"Feature","properties":{"stroke":"rgba(255, 0, 238, 1)","stroke-opacity":1,"stroke-width":8},"geometry":{"type":"LineString","coordinates":[[-0.454679,51.456936],[-0.45464,51.456967],[-0.454632,51.457001],[-0.454458,51.457026],[-0.454364,51.457028],[-0.454194,51.456967],[-0.453973,51.456866],[-0.453749,51.45676],[-0.453169,51.456487],[-0.45292,51.456372],[-0.452812,51.456328],[-0.452608,51.456258],[-0.452375,51.456192],[-0.452163,51.456146],[-0.451921,51.456108],[-0.451717,51.456089],[-0.45158,51.456081],[-0.451367,51.456074],[-0.451143,51.456077],[-0.450841,51.456091],[-0.450637,51.456104],[-0.450262,51.45614],[-0.449918,51.456187],[-0.449567,51.456241],[-0.449462,51.456265],[-0.449296,51.456321],[-0.44917,51.456359],[-0.449072,51.456382],[-0.44898,51.456401],[-0.44887,51.456405],[-0.448747,51.456427],[-0.448576,51.456478],[-0.447865,51.456713],[-0.447614,51.456818],[-0.447269,51.456959],[-0.447068,51.457046],[-0.446886,51.457125],[-0.446684,51.457242],[-0.446598,51.457344],[-0.446504,51.457429],[-0.446489,51.457505],[-0.446532,51.457637],[-0.446551,51.457708],[-0.446633,51.457816],[-0.446735,51.457889],[-0.446848,51.45795],[-0.447016,51.458049],[-0.44721,51.458162],[-0.447441,51.458288],[-0.447698,51.45843],[-0.447868,51.458526],[-0.448585,51.458918],[-0.448401,51.459082],[-0.446425,51.460418],[-0.446343,51.460473],[-0.446239,51.460514],[-0.446159,51.460561],[-0.446087,51.460603],[-0.446016,51.460644],[-0.44569,51.460504],[-0.445689,51.460358],[-0.445524,51.460258],[-0.445316,51.460139],[-0.4451,51.460014],[-0.44483,51.459868],[-0.444694,51.459797],[-0.444535,51.459713],[-0.444259,51.459645],[-0.443969,51.459576],[-0.444082,51.459443],[-0.443899,51.459409],[-0.443716,51.459374],[-0.443457,51.459325],[-0.443221,51.459282],[-0.442893,51.459343]]}}]}