{"type":"FeatureCollection","features":[{"type":"Feature","geometry":{"type":"LineString","coordinates":[[-0.976046,51.823136],[-0.976203,51.823217],[-0.976279,51.82322],[-0.976357,51.823204],[-0.976521,51.823098],[-0.976656,51.823001],[-0.976785,51.822902],[-0.976874,51.822885],[-0.977039,51.822776],[-0.977124,51.822723],[-0.977216,51.82267],[-0.977314,51.822626],[-0.97734,51.82262],[-0.977367,51.822619],[-0.977563,51.822716],[-0.977735,51.822791],[-0.977841,51.822831],[-0.978003,51.822868],[-0.978125,51.82287],[-0.978508,51.822778],[-0.97866,51.822997],[-0.978796,51.823129],[-0.97887,51.823199],[-0.978981,51.823246],[-0.979076,51.82339],[-0.979117,51.823439],[-0.979169,51.823465],[-0.979246,51.823484],[-0.979324,51.823482],[-0.979496,51.823454],[-0.979786,51.823403],[-0.979958,51.823324],[-0.979846,51.823196],[-0.979492,51.822965],[-0.979339,51.822843],[-0.979239,51.822758],[-0.979181,51.822676],[-0.979043,51.822441],[-0.978874,51.822162],[-0.978692,51.821817],[-0.978545,51.82187],[-0.978393,51.821935],[-0.978078,51.822192],[-0.977997,51.822192],[-0.977969,51.822161],[-0.977938,51.822189],[-0.977917,51.822114],[-0.977471,51.821998],[-0.977239,51.821938],[-0.977015,51.821891],[-0.976736,51.821841],[-0.97653,51.82187],[-0.976378,51.82192],[-0.976162,51.82206],[-0.975824,51.822338],[-0.975574,51.822557],[-0.975519,51.822658],[-0.975522,51.822747],[-0.97566,51.822911],[-0.975882,51.823033]]},"properties":{}}]}